IRIDIUM 166             
1 43570U 18061B   25303.12868569  .00000187  00000+0  59762-4 0  9991
2 43570  86.3983 152.9239 0001897  88.2102 271.9311 14.34218164380420
IRIDIUM 158             
1 43571U 18061C   25303.09697858  .00000352  00000+0  11849-3 0  9996
2 43571  86.3984 152.9471 0002149  79.6996 280.4442 14.34216175380381
IRIDIUM 165             
1 43572U 18061D   25303.12234321  .00000145  00000+0  44574-4 0  9995
2 43572  86.3985 152.9782 0001981  88.9266 271.2157 14.34218129380410
IRIDIUM 155             
1 43573U 18061E   25303.50289558  .00000128  00000+0  38602-4 0  9996
2 43573  86.3978 152.6999 0002122  81.4649 278.6787 14.34221005380430
IRIDIUM 154             
1 43574U 18061F   25303.13502894 -.00000046  00000+0 -23408-4 0  9996
2 43574  86.3991 152.9753 0001966  86.3511 273.7910 14.34217358380434
IRIDIUM 163             
1 43575U 18061G   25303.53461221  .00000144  00000+0  44411-4 0  9993
2 43575  86.3981 152.7317 0002288  85.2618 274.8839 14.34218049380465
IRIDIUM 156             
1 43576U 18061H   25303.09062963  .00000279  00000+0  92629-4 0  9998
2 43576  86.3981 152.9238 0001881  80.4287 279.7121 14.34218518380398
IRIDIUM 164             
1 43577U 18061J   25303.14137117  .00000014  00000+0 -21617-5 0  9997
2 43577  86.3988 152.9391 0001813  90.7212 269.4192 14.34217581380442
